[{"OBJECT_NAME":"TIANQIN 1 (CAS-6)","OBJECT_ID":"2019-093A","EPOCH":"2026-03-09T23:25:50.916864","MEAN_MOTION":14.94890933,"ECCENTRICITY":0.00118256,"INCLINATION":97.7823,"RA_OF_ASC_NODE":153.5687,"ARG_OF_PERICENTER":31.664,"MEAN_ANOMALY":328.5289,"EPHEMERIS_TYPE":0,"CLASSIFICATION_TYPE":"U","NORAD_CAT_ID":44879,"ELEMENT_SET_NO":999,"REV_AT_EPOCH":33722,"BSTAR":0.00035534384,"MEAN_MOTION_DOT":3.822e-5,"MEAN_MOTION_DDOT":0},{"OBJECT_NAME":"K-HERO","OBJECT_ID":"2025-274L","EPOCH":"2026-03-09T07:34:25.128768","MEAN_MOTION":14.93525062,"ECCENTRICITY":0.00141369,"INCLINATION":97.7443,"RA_OF_ASC_NODE":359.1816,"ARG_OF_PERICENTER":357.698,"MEAN_ANOMALY":2.4172,"EPHEMERIS_TYPE":0,"CLASSIFICATION_TYPE":"U","NORAD_CAT_ID":66660,"ELEMENT_SET_NO":999,"REV_AT_EPOCH":1532,"BSTAR":0.00026499368,"MEAN_MOTION_DOT":2.739e-5,"MEAN_MOTION_DDOT":0}]
